{"type": "FeatureCollection", "features": [ {"type": "Feature", "properties": {"norad_id": 43622, "name": "BEIDOU-3 M13 (C32)", "group": "beidou", "lat": 11.091885000092509, "lon": 76.16678477833366, "alt_km": 21522.50961231192, "timestamp": "2025-12-16T10:53:45.734707+00:00", "meta": {"OBJECT_NAME": "BEIDOU-3 M13 (C32)", "OBJECT_ID": "2018-072A", "EPOCH": "2025-12-12T16:12:36.163584", "MEAN_MOTION": 1.8623072, "ECCENTRICITY": 0.0005872, "INCLINATION": 56.4592, "RA_OF_ASC_NODE": 68.8222, "ARG_OF_PERICENTER": 298.9421, "MEAN_ANOMALY": 61.0187, "EPHEMERIS_TYPE": 0, "CLASSIFICATION_TYPE": "U", "NORAD_CAT_ID": 43622, "ELEMENT_SET_NO": 999, "REV_AT_EPOCH": 4918, "BSTAR": 0, "MEAN_MOTION_DOT": -7.4e-07, "MEAN_MOTION_DDOT": 0}, "tle": {"line1": "1 43622U 18072A   25346.67541856 -.00000074  00000+0  00000+0 0  9997", "line2": "2 43622  56.4592  68.8222 0005872 298.9421  61.0187  1.86230720 49189"}}, "geometry": {"type": "Point", "coordinates": [76.16678477833366, 11.091885000092509]}}, {"type": "Feature", "properties": {"norad_id": 43623, "name": "BEIDOU-3 M14 (C33)", "group": "beidou", "lat": 54.13946287868427, "lon": -177.66493397670774, "alt_km": 21527.590892450033, "timestamp": "2025-12-16T10:53:45.734719+00:00", "meta": {"OBJECT_NAME": "BEIDOU-3 M14 (C33)", "OBJECT_ID": "2018-072B", "EPOCH": "2025-12-14T16:31:43.622976", "MEAN_MOTION": 1.86230968, "ECCENTRICITY": 0.00033007, "INCLINATION": 56.4633, "RA_OF_ASC_NODE": 68.7492, "ARG_OF_PERICENTER": 334.4118, "MEAN_ANOMALY": 25.5906, "EPHEMERIS_TYPE": 0, "CLASSIFICATION_TYPE": "U", "NORAD_CAT_ID": 43623, "ELEMENT_SET_NO": 999, "REV_AT_EPOCH": 4921, "BSTAR": 0, "MEAN_MOTION_DOT": -8.3e-07, "MEAN_MOTION_DDOT": 0}, "tle": {"line1": "1 43623U 18072B   25348.68869934 -.00000083  00000+0  00000+0 0  9991", "line2": "2 43623  56.4633  68.7492 0003300 334.4118  25.5906  1.86230968 49219"}}, "geometry": {"type": "Point", "coordinates": [-177.66493397670774, 54.13946287868427]}}, {"type": "Feature", "properties": {"norad_id": 43647, "name": "BEIDOU-3 M16 (C35)", "group": "beidou", "lat": -1.819418694674609, "lon": -54.940959219753715, "alt_km": 21509.74744662348, "timestamp": "2025-12-16T10:53:45.734730+00:00", "meta": {"OBJECT_NAME": "BEIDOU-3 M16 (C35)", "OBJECT_ID": "2018-078A", "EPOCH": "2025-12-13T05:39:20.780352", "MEAN_MOTION": 1.8623234, "ECCENTRICITY": 0.00072054, "INCLINATION": 54.2615, "RA_OF_ASC_NODE": 306.5038, "ARG_OF_PERICENTER": 19.3609, "MEAN_ANOMALY": 340.6562, "EPHEMERIS_TYPE": 0, "CLASSIFICATION_TYPE": "U", "NORAD_CAT_ID": 43647, "ELEMENT_SET_NO": 999, "REV_AT_EPOCH": 4869, "BSTAR": 0, "MEAN_MOTION_DOT": -9.7e-07, "MEAN_MOTION_DDOT": 0}, "tle": {"line1": "1 43647U 18078A   25347.23565718 -.00000097  00000+0  00000+0 0  9991", "line2": "2 43647  54.2615 306.5038 0007205  19.3609 340.6562  1.86232340 48698"}}, "geometry": {"type": "Point", "coordinates": [-54.940959219753715, -1.819418694674609]}}, {"type": "Feature", "properties": {"norad_id": 43648, "name": "BEIDOU-3 M15 (C34)", "group": "beidou", "lat": -54.242007556910565, "lon": -141.72319963950477, "alt_km": 21536.837263031575, "timestamp": "2025-12-16T10:53:45.734742+00:00", "meta": {"OBJECT_NAME": "BEIDOU-3 M15 (C34)", "OBJECT_ID": "2018-078B", "EPOCH": "2025-12-14T10:31:50.376000", "MEAN_MOTION": 1.86231962, "ECCENTRICITY": 0.00037442, "INCLINATION": 54.256, "RA_OF_ASC_NODE": 306.4619, "ARG_OF_PERICENTER": 18.2942, "MEAN_ANOMALY": 341.7074, "EPHEMERIS_TYPE": 0, "CLASSIFICATION_TYPE": "U", "NORAD_CAT_ID": 43648, "ELEMENT_SET_NO": 999, "REV_AT_EPOCH": 4873, "BSTAR": 0, "MEAN_MOTION_DOT": -1e-06, "MEAN_MOTION_DDOT": 0}, "tle": {"line1": "1 43648U 18078B   25348.43877750 -.00000100  00000+0  00000+0 0  9992", "line2": "2 43648  54.2560 306.4619 0003744  18.2942 341.7074  1.86231962 48738"}}, "geometry": {"type": "Point", "coordinates": [-141.72319963950477, -54.242007556910565]}}, {"type": "Feature", "properties": {"norad_id": 43683, "name": "BEIDOU-3 G1 (C59)", "group": "beidou", "lat": -2.497929062799282, "lon": 28.83174078719484, "alt_km": 35791.03339593185, "timestamp": "2025-12-16T10:53:45.734759+00:00", "meta": {"OBJECT_NAME": "BEIDOU-3 G1 (C59)", "OBJECT_ID": "2018-085A", "EPOCH": "2025-12-15T22:36:50.710176", "MEAN_MOTION": 1.00269966, "ECCENTRICITY": 0.00016261, "INCLINATION": 2.6158, "RA_OF_ASC_NODE": 102.8765, "ARG_OF_PERICENTER": 52.5207, "MEAN_ANOMALY": 48.7108, "EPHEMERIS_TYPE": 0, "CLASSIFICATION_TYPE": "U", "NORAD_CAT_ID": 43683, "ELEMENT_SET_NO": 999, "REV_AT_EPOCH": 2622, "BSTAR": 0, "MEAN_MOTION_DOT": -2.56e-06, "MEAN_MOTION_DDOT": 0}, "tle": {"line1": "1 43683U 18085A   25349.94225359 -.00000256  00000+0  00000+0 0  9990", "line2": "2 43683   2.6158 102.8765 0001626  52.5207  48.7108  1.00269966 26222"}}, "geometry": {"type": "Point", "coordinates": [28.83174078719484, -2.497929062799282]}}, {"type": "Feature", "properties": {"norad_id": 43706, "name": "BEIDOU-3 M17 (C36)", "group": "beidou", "lat": 12.327860762091834, "lon": -0.5845829549533231, "alt_km": 21540.57745566796, "timestamp": "2025-12-16T10:53:45.734771+00:00", "meta": {"OBJECT_NAME": "BEIDOU-3 M17 (C36)", "OBJECT_ID": "2018-093A", "EPOCH": "2025-12-15T07:56:44.520576", "MEAN_MOTION": 1.86228523, "ECCENTRICITY": 0.00061371, "INCLINATION": 54.1729, "RA_OF_ASC_NODE": 188.5337, "ARG_OF_PERICENTER": 307.6759, "MEAN_ANOMALY": 184.25, "EPHEMERIS_TYPE": 0, "CLASSIFICATION_TYPE": "U", "NORAD_CAT_ID": 43706, "ELEMENT_SET_NO": 999, "REV_AT_EPOCH": 4811, "BSTAR": 0, "MEAN_MOTION_DOT": 1.13e-06, "MEAN_MOTION_DDOT": 0}, "tle": {"line1": "1 43706U 18093A   25349.33107084  .00000113  00000+0  00000+0 0  9993", "line2": "2 43706  54.1729 188.5337 0006137 307.6759 184.2500  1.86228523 48110"}}, "geometry": {"type": "Point", "coordinates": [-0.5845829549533231, 12.327860762091834]}}, {"type": "Feature", "properties": {"norad_id": 43707, "name": "BEIDOU-3 M18 (C37)", "group": "beidou", "lat": -52.320538285688336, "lon": 77.83175258325105, "alt_km": 21535.9230849318, "timestamp": "2025-12-16T10:53:45.734782+00:00", "meta": {"OBJECT_NAME": "BEIDOU-3 M18 (C37)", "OBJECT_ID": "2018-093B", "EPOCH": "2025-12-14T23:54:02.185632", "MEAN_MOTION": 1.86226745, "ECCENTRICITY": 0.00063121, "INCLINATION": 54.1734, "RA_OF_ASC_NODE": 188.5369, "ARG_OF_PERICENTER": 353.2198, "MEAN_ANOMALY": 6.8394, "EPHEMERIS_TYPE": 0, "CLASSIFICATION_TYPE": "U", "NORAD_CAT_ID": 43707, "ELEMENT_SET_NO": 999, "REV_AT_EPOCH": 4810, "BSTAR": 0, "MEAN_MOTION_DOT": 1.11e-06, "MEAN_MOTION_DDOT": 0}, "tle": {"line1": "1 43707U 18093B   25348.99585863  .00000111  00000+0  00000+0 0  9998", "line2": "2 43707  54.1734 188.5369 0006312 353.2198   6.8394  1.86226745 48104"}}, "geometry": {"type": "Point", "coordinates": [77.83175258325105, -52.320538285688336]}}, {"type": "Feature", "properties": {"norad_id": 44204, "name": "BEIDOU-3 IGSO-1 (C38)", "group": "beidou", "lat": -31.52832889434448, "lon": 17.453175816781833, "alt_km": 35818.89264384509, "timestamp": "2025-12-16T10:53:45.734794+00:00", "meta": {"OBJECT_NAME": "BEIDOU-3 IGSO-1 (C38)", "OBJECT_ID": "2019-023A", "EPOCH": "2025-11-19T14:15:02.708640", "MEAN_MOTION": 1.00252177, "ECCENTRICITY": 0.0026966, "INCLINATION": 58.4003, "RA_OF_ASC_NODE": 39.8168, "ARG_OF_PERICENTER": 221.2202, "MEAN_ANOMALY": 126.9723, "EPHEMERIS_TYPE": 0, "CLASSIFICATION_TYPE": "U", "NORAD_CAT_ID": 44204, "ELEMENT_SET_NO": 999, "REV_AT_EPOCH": 510, "BSTAR": 0, "MEAN_MOTION_DOT": -2.26e-06, "MEAN_MOTION_DDOT": 0}, "tle": {"line1": "1 44204U 19023A   25323.59378135 -.00000226  00000+0  00000+0 0  9994", "line2": "2 44204  58.4003  39.8168 0026966 221.2202 126.9723  1.00252177  5102"}}, "geometry": {"type": "Point", "coordinates": [17.453175816781833, -31.52832889434448]}}, {"type": "Feature", "properties": {"norad_id": 44231, "name": "BEIDOU-2 G8 (C01)", "group": "beidou", "lat": -1.085946840505672, "lon": 33.316976791521995, "alt_km": 35769.44910283143, "timestamp": "2025-12-16T10:53:45.734810+00:00", "meta": {"OBJECT_NAME": "BEIDOU-2 G8 (C01)", "OBJECT_ID": "2019-027A", "EPOCH": "2025-12-15T22:37:58.102176", "MEAN_MOTION": 1.00267349, "ECCENTRICITY": 0.00087641, "INCLINATION": 1.6701, "RA_OF_ASC_NODE": 74.7184, "ARG_OF_PERICENTER": 258.0815, "MEAN_ANOMALY": 235.9838, "EPHEMERIS_TYPE": 0, "CLASSIFICATION_TYPE": "U", "NORAD_CAT_ID": 44231, "ELEMENT_SET_NO": 999, "REV_AT_EPOCH": 2424, "BSTAR": 0, "MEAN_MOTION_DOT": -2.27e-06, "MEAN_MOTION_DDOT": 0}, "tle": {"line1": "1 44231U 19027A   25349.94303359 -.00000227  00000+0  00000+0 0  9992", "line2": "2 44231   1.6701  74.7184 0008764 258.0815 235.9838  1.00267349 24248"}}, "geometry": {"type": "Point", "coordinates": [33.316976791521995, -1.085946840505672]}}, {"type": "Feature", "properties": {"norad_id": 44337, "name": "BEIDOU-3 IGSO-2 (C39)", "group": "beidou", "lat": -22.558689966732253, "lon": -2.742565502597318, "alt_km": 35633.39471282771, "timestamp": "2025-12-16T10:53:45.734822+00:00", "meta": {"OBJECT_NAME": "BEIDOU-3 IGSO-2 (C39)", "OBJECT_ID": "2019-035A", "EPOCH": "2025-12-15T20:48:46.059264", "MEAN_MOTION": 1.0027048, "ECCENTRICITY": 0.00373444, "INCLINATION": 55.2266, "RA_OF_ASC_NODE": 160.4736, "ARG_OF_PERICENTER": 202.467, "MEAN_ANOMALY": 153.4937, "EPHEMERIS_TYPE": 0, "CLASSIFICATION_TYPE": "U", "NORAD_CAT_ID": 44337, "ELEMENT_SET_NO": 999, "REV_AT_EPOCH": 2382, "BSTAR": 0, "MEAN_MOTION_DOT": -3.5e-07, "MEAN_MOTION_DDOT": 0}, "tle": {"line1": "1 44337U 19035A   25349.86719976 -.00000035  00000+0  00000+0 0  9992", "line2": "2 44337  55.2266 160.4736 0037344 202.4670 153.4937  1.00270480 23827"}}, "geometry": {"type": "Point", "coordinates": [-2.742565502597318, -22.558689966732253]}}]}